start=new Date('2022-08-20T00:00:00.000Z').valueOf();
sats=[{"SITE":"AFETR","FILE":"3540406","EPOCH":"2022-08-19T02:40:45.240672","ARG_OF_PERICENTER":"58.3447","PERIAPSIS":"545.985","OBJECT_NAME":"STARLINK-1532","REV_AT_EPOCH":"11358","LAUNCH_DATE":"2020-08-07","GP_ID":"210514306","MEAN_ANOMALY":"301.7711","ELEMENT_SET_NO":"999","REF_FRAME":"TEME","MEAN_MOTION":"15.06409270","CENTER_NAME":"EARTH","CLASSIFICATION_TYPE":"U","MEAN_MOTION_DOT":"0.00000689","MEAN_MOTION_DDOT":"0.0000000000000","SEMIMAJOR_AXIS":"6925.320","ECCENTRICITY":"0.00017330","COUNTRY_CODE":"US","TIME_SYSTEM":"UTC","TLE_LINE2":"2 46068  53.0554 166.1564 0001733  58.3447 301.7711 15.06409270113584","MEAN_ELEMENT_THEORY":"SGP4","RCS_SIZE":"LARGE","NORAD_CAT_ID":"46068","TLE_LINE1":"1 46068U 20055AT  22231.11163473  .00000689  00000-0  65169-4 0  9996","BSTAR":"0.00006516900000","INCLINATION":"53.0554","RA_OF_ASC_NODE":"166.1564","EPHEMERIS_TYPE":"0","OBJECT_ID":"2020-055AT","OBJECT_TYPE":"PAYLOAD","PERIOD":"95.592","DECAY_DATE":null,"APOAPSIS":"548.385"},{"MEAN_MOTION_DOT":"0.00001056","CENTER_NAME":"EARTH","CLASSIFICATION_TYPE":"U","MEAN_MOTION_DDOT":"0.0000000000000","SEMIMAJOR_AXIS":"6925.313","ARG_OF_PERICENTER":"86.6785","PERIAPSIS":"546.016","FILE":"3540406","SITE":"AFETR","EPOCH":"2022-08-19T03:03:20.877408","ELEMENT_SET_NO":"999","REF_FRAME":"TEME","MEAN_MOTION":"15.06411727","REV_AT_EPOCH":"11359","OBJECT_NAME":"STARLINK-1533","LAUNCH_DATE":"2020-08-07","GP_ID":"210514548","MEAN_ANOMALY":"273.4396","RA_OF_ASC_NODE":"166.0980","EPHEMERIS_TYPE":"0","OBJECT_ID":"2020-055AU","INCLINATION":"53.0570","PERIOD":"95.591","DECAY_DATE":null,"APOAPSIS":"548.339","OBJECT_TYPE":"PAYLOAD","ECCENTRICITY":"0.00016770","COUNTRY_CODE":"US","RCS_SIZE":"LARGE","NORAD_CAT_ID":"46069","TLE_LINE1":"1 46069U 20055AU  22231.12732497  .00001056  00000-0  89740-4 0  9996","BSTAR":"0.00008974000000","TIME_SYSTEM":"UTC","MEAN_ELEMENT_THEORY":"SGP4","TLE_LINE2":"2 46069  53.0570 166.0980 0001677  86.6785 273.4396 15.06411727113595"},{"SEMIMAJOR_AXIS":"6925.303","MEAN_MOTION_DDOT":"0.0000000000000","MEAN_MOTION_DOT":"0.00004418","CLASSIFICATION_TYPE":"U","CENTER_NAME":"EARTH","MEAN_MOTION":"15.06414790","ELEMENT_SET_NO":"999","REF_FRAME":"TEME","MEAN_ANOMALY":"275.9078","GP_ID":"210480608","LAUNCH_DATE":"2020-08-07","OBJECT_NAME":"STARLINK-1536","REV_AT_EPOCH":"11305","PERIAPSIS":"546.201","ARG_OF_PERICENTER":"84.2070","EPOCH":"2022-08-19T03:24:34.504992","SITE":"AFETR","FILE":"3539735","APOAPSIS":"548.136","DECAY_DATE":null,"PERIOD":"95.591","OBJECT_TYPE":"PAYLOAD","OBJECT_ID":"2020-055AV","EPHEMERIS_TYPE":"0","RA_OF_ASC_NODE":"166.0331","INCLINATION":"53.0528","TLE_LINE1":"1 46070U 20055AV  22231.14206603  .00004418  00000-0  31515-3 0  9996","BSTAR":"0.00031515000000","RCS_SIZE":"LARGE","NORAD_CAT_ID":"46070","TLE_LINE2":"2 46070  53.0528 166.0331 0001397  84.2070 275.9078 15.06414790113058","MEAN_ELEMENT_THEORY":"SGP4","TIME_SYSTEM":"UTC","COUNTRY_CODE":"US","ECCENTRICITY":"0.00013970"},{"COUNTRY_CODE":"US","ECCENTRICITY":"0.00012160","TLE_LINE1":"1 46071U 20055AW  22231.09414887  .00003767  00000-0  27148-3 0  9999","BSTAR":"0.00027148000000","RCS_SIZE":"LARGE","NORAD_CAT_ID":"46071","TLE_LINE2":"2 46071  53.0550 166.2323 0001216  86.1136 273.9992 15.06419114113587","MEAN_ELEMENT_THEORY":"SGP4","TIME_SYSTEM":"UTC","OBJECT_ID":"2020-055AW","RA_OF_ASC_NODE":"166.2323","EPHEMERIS_TYPE":"0","INCLINATION":"53.0550","APOAPSIS":"547.997","DECAY_DATE":null,"PERIOD":"95.591","OBJECT_TYPE":"PAYLOAD","PERIAPSIS":"546.313","ARG_OF_PERICENTER":"86.1136","EPOCH":"2022-08-19T02:15:34.462368","FILE":"3540406","SITE":"AFETR","MEAN_MOTION":"15.06419114","ELEMENT_SET_NO":"999","REF_FRAME":"TEME","GP_ID":"210513059","MEAN_ANOMALY":"273.9992","LAUNCH_DATE":"2020-08-07","REV_AT_EPOCH":"11358","OBJECT_NAME":"STARLINK-1538","MEAN_MOTION_DOT":"0.00003767","CLASSIFICATION_TYPE":"U","CENTER_NAME":"EARTH","SEMIMAJOR_AXIS":"6925.290","MEAN_MOTION_DDOT":"0.0000000000000"},{"SITE":"AFETR","FILE":"3540406","EPOCH":"2022-08-19T01:15:50.116032","ARG_OF_PERICENTER":"62.3429","PERIAPSIS":"546.108","REV_AT_EPOCH":"11356","OBJECT_NAME":"STARLINK-1539","LAUNCH_DATE":"2020-08-07","GP_ID":"210513807","MEAN_ANOMALY":"297.7718","REF_FRAME":"TEME","ELEMENT_SET_NO":"999","MEAN_MOTION":"15.06409329","CENTER_NAME":"EARTH","CLASSIFICATION_TYPE":"U","MEAN_MOTION_DOT":"0.00003153","MEAN_MOTION_DDOT":"0.0000000000000","SEMIMAJOR_AXIS":"6925.320","ECCENTRICITY":"0.00015550","COUNTRY_CODE":"US","TIME_SYSTEM":"UTC","MEAN_ELEMENT_THEORY":"SGP4","TLE_LINE2":"2 46072  53.0539 166.4405 0001555  62.3429 297.7718 15.06409329113560","RCS_SIZE":"LARGE","NORAD_CAT_ID":"46072","TLE_LINE1":"1 46072U 20055AX  22231.05266338  .00003153  00000-0  23039-3 0  9996","BSTAR":"0.00023039000000","INCLINATION":"53.0539","EPHEMERIS_TYPE":"0","RA_OF_ASC_NODE":"166.4405","OBJECT_ID":"2020-055AX","OBJECT_TYPE":"PAYLOAD","PERIOD":"95.592","DECAY_DATE":null,"APOAPSIS":"548.262"},{"MEAN_MOTION_DDOT":"0.0000000000000","SEMIMAJOR_AXIS":"6925.299","MEAN_MOTION_DOT":"0.00002782","CLASSIFICATION_TYPE":"U","CENTER_NAME":"EARTH","ELEMENT_SET_NO":"999","REF_FRAME":"TEME","MEAN_MOTION":"15.06416304","LAUNCH_DATE":"2020-08-07","REV_AT_EPOCH":"11361","OBJECT_NAME":"STARLINK-1542","MEAN_ANOMALY":"297.2100","GP_ID":"210514049","ARG_OF_PERICENTER":"62.9055","PERIAPSIS":"546.037","FILE":"3540406","SITE":"AFETR","EPOCH":"2022-08-19T08:00:34.733376","PERIOD":"95.591","APOAPSIS":"548.290","DECAY_DATE":null,"OBJECT_TYPE":"PAYLOAD","EPHEMERIS_TYPE":"0","RA_OF_ASC_NODE":"165.1738","OBJECT_ID":"2020-055AY","INCLINATION":"53.0522","NORAD_CAT_ID":"46073","RCS_SIZE":"LARGE","BSTAR":"0.00020553000000","TLE_LINE1":"1 46073U 20055AY  22231.33373534  .00002782  00000-0  20553-3 0  9990","MEAN_ELEMENT_THEORY":"SGP4","TLE_LINE2":"2 46073  53.0522 165.1738 0001627  62.9055 297.2100 15.06416304113616","TIME_SYSTEM":"UTC","COUNTRY_CODE":"US","ECCENTRICITY":"0.00016270"},{"CLASSIFICATION_TYPE":"U","CENTER_NAME":"EARTH","MEAN_MOTION_DOT":"-0.00001399","SEMIMAJOR_AXIS":"6925.359","MEAN_MOTION_DDOT":"0.0000000000000","EPOCH":"2022-08-19T07:39:21.891168","SITE":"AFETR","FILE":"3540406","PERIAPSIS":"545.982","ARG_OF_PERICENTER":"60.6564","MEAN_ANOMALY":"299.4604","GP_ID":"210513309","LAUNCH_DATE":"2020-08-07","REV_AT_EPOCH":"11360","OBJECT_NAME":"STARLINK-1549","MEAN_MOTION":"15.06396511","ELEMENT_SET_NO":"999","REF_FRAME":"TEME","INCLINATION":"53.0526","OBJECT_ID":"2020-055AZ","RA_OF_ASC_NODE":"165.2245","EPHEMERIS_TYPE":"0","OBJECT_TYPE":"PAYLOAD","APOAPSIS":"548.467","DECAY_DATE":null,"PERIOD":"95.592","COUNTRY_CODE":"US","ECCENTRICITY":"0.00017940","MEAN_ELEMENT_THEORY":"SGP4","TLE_LINE2":"2 46074  53.0526 165.2245 0001794  60.6564 299.4604 15.06396511113609","TIME_SYSTEM":"UTC","BSTAR":"-0.00007506900000","TLE_LINE1":"1 46074U 20055AZ  22231.31900337 -.00001399  00000-0 -75069-4 0  9994","NORAD_CAT_ID":"46074","RCS_SIZE":"LARGE"},{"EPHEMERIS_TYPE":"0","RA_OF_ASC_NODE":"165.9976","OBJECT_ID":"2020-055BA","INCLINATION":"53.0559","PERIOD":"95.591","APOAPSIS":"548.333","DECAY_DATE":null,"OBJECT_TYPE":"PAYLOAD","COUNTRY_CODE":"US","ECCENTRICITY":"0.00016650","RCS_SIZE":"LARGE","NORAD_CAT_ID":"46075","BSTAR":"0.00022325000000","TLE_LINE1":"1 46075U 20055BA  22231.14575262  .00003046  00000-0  22325-3 0  9996","TLE_LINE2":"2 46075  53.0559 165.9976 0001665  66.6012 293.5152 15.06411040113052","MEAN_ELEMENT_THEORY":"SGP4","TIME_SYSTEM":"UTC","MEAN_MOTION_DOT":"0.00003046","CLASSIFICATION_TYPE":"U","CENTER_NAME":"EARTH","MEAN_MOTION_DDOT":"0.0000000000000","SEMIMAJOR_AXIS":"6925.315","ARG_OF_PERICENTER":"66.6012","PERIAPSIS":"546.027","FILE":"3539740","SITE":"AFETR","EPOCH":"2022-08-19T03:29:53.026368","ELEMENT_SET_NO":"999","REF_FRAME":"TEME","MEAN_MOTION":"15.06411040","LAUNCH_DATE":"2020-08-07","OBJECT_NAME":"STARLINK-1551","REV_AT_EPOCH":"11305","GP_ID":"210480694","MEAN_ANOMALY":"293.5152"},{"RA_OF_ASC_NODE":"166.2016","EPHEMERIS_TYPE":"0","OBJECT_ID":"2020-055BB","INCLINATION":"53.0554","PERIOD":"95.591","DECAY_DATE":null,"APOAPSIS":"548.557","OBJECT_TYPE":"PAYLOAD","ECCENTRICITY":"0.00019980","COUNTRY_CODE":"US","RCS_SIZE":"LARGE","NORAD_CAT_ID":"46076","TLE_LINE1":"1 46076U 20055BB  22231.10520599  .00001366  00000-0  11059-3 0  9991","BSTAR":"0.00011059000000","TIME_SYSTEM":"UTC","TLE_LINE2":"2 46076  53.0554 166.2016 0001998  70.0474 290.0730 15.06412991113563","MEAN_ELEMENT_THEORY":"SGP4","MEAN_MOTION_DOT":"0.00001366","CENTER_NAME":"EARTH","CLASSIFICATION_TYPE":"U","MEAN_MOTION_DDOT":"0.0000000000000","SEMIMAJOR_AXIS":"6925.309","ARG_OF_PERICENTER":"70.0474","PERIAPSIS":"545.790","FILE":"3540406","SITE":"AFETR","EPOCH":"2022-08-19T02:31:29.797536","ELEMENT_SET_NO":"999","REF_FRAME":"TEME","MEAN_MOTION":"15.06412991","REV_AT_EPOCH":"11356","OBJECT_NAME":"STARLINK-1552","LAUNCH_DATE":"2020-08-07","MEAN_ANOMALY":"290.0730","GP_ID":"210514307"},{"COUNTRY_CODE":"US","ECCENTRICITY":"0.00019160","TLE_LINE1":"1 46077U 20055BC  22231.21947653  .00002578  00000-0  19189-3 0  9996","BSTAR":"0.00019189000000","NORAD_CAT_ID":"46077","RCS_SIZE":"LARGE","TLE_LINE2":"2 46077  53.0533 165.6867 0001916  61.6316 298.4866 15.06405005113558","MEAN_ELEMENT_THEORY":"SGP4","TIME_SYSTEM":"UTC","OBJECT_ID":"2020-055BC","EPHEMERIS_TYPE":"0","RA_OF_ASC_NODE":"165.6867","INCLINATION":"53.0533","APOAPSIS":"548.525","DECAY_DATE":null,"PERIOD":"95.592","OBJECT_TYPE":"PAYLOAD","PERIAPSIS":"545.871","ARG_OF_PERICENTER":"61.6316","EPOCH":"2022-08-19T05:16:02.772192","SITE":"AFETR","FILE":"3540406","MEAN_MOTION":"15.06405005","ELEMENT_SET_NO":"999","REF_FRAME":"TEME","GP_ID":"210514549","MEAN_ANOMALY":"298.4866","LAUNCH_DATE":"2020-08-07","OBJECT_NAME":"STARLINK-1559","REV_AT_EPOCH":"11355","MEAN_MOTION_DOT":"0.00002578","CLASSIFICATION_TYPE":"U","CENTER_NAME":"EARTH","SEMIMAJOR_AXIS":"6925.333","MEAN_MOTION_DDOT":"0.0000000000000"}];
